{
    "links": {
        "self": "http://www.neowsapp.com/rest/v1/neo/3645269?api_key=iIulBulltgU6a56xZRHN4H3l9WmuAYTsLGpBGhQ2"
    },
    "id": "3645269",
    "neo_reference_id": "3645269",
    "name": "(2013 PC7)",
    "designation": "2013 PC7",
    "nasa_jpl_url": "http://ssd.jpl.nasa.gov/sbdb.cgi?sstr=3645269",
    "absolute_magnitude_h": 22.4,
    "estimated_diameter": {
        "kilometers": {
            "estimated_diameter_min": 0.0880146521,
            "estimated_diameter_max": 0.1968067451
        },
        "meters": {
            "estimated_diameter_min": 88.0146520901,
            "estimated_diameter_max": 196.8067450894
        },
        "miles": {
            "estimated_diameter_min": 0.0546897524,
            "estimated_diameter_max": 0.122290004
        },
        "feet": {
            "estimated_diameter_min": 288.7619911632,
            "estimated_diameter_max": 645.6914415591
        }
    },
    "is_potentially_hazardous_asteroid": false,
    "close_approach_data": [
        {
            "close_approach_date": "1902-08-23",
            "close_approach_date_full": "1902-Aug-23 00:06",
            "epoch_date_close_approach": -2125698840000,
            "relative_velocity": {
                "kilometers_per_second": "17.7010895581",
                "kilometers_per_hour": "63723.9224090106",
                "miles_per_hour": "39595.5672324211"
            },
            "miss_distance": {
                "astronomical": "0.4626881426",
                "lunar": "179.9856874714",
                "kilometers": "69217160.607216262",
                "miles": "43009549.2220259356"
            },
            "orbiting_body": "Earth"
        },
        {
            "close_approach_date": "1973-06-07",
            "close_approach_date_full": "1973-Jun-07 18:45",
            "epoch_date_close_approach": 108326700000,
            "relative_velocity": {
                "kilometers_per_second": "14.424334566",
                "kilometers_per_hour": "51927.6044375953",
                "miles_per_hour": "32265.7939906825"
            },
            "miss_distance": {
                "astronomical": "0.3926969574",
                "lunar": "152.7591164286",
                "kilometers": "58746628.382520738",
                "miles": "36503462.1888646644"
            },
            "orbiting_body": "Earth"
        },
        {
            "close_approach_date": "2013-07-21",
            "close_approach_date_full": "2013-Jul-21 01:36",
            "epoch_date_close_approach": 1374370560000,
            "relative_velocity": {
                "kilometers_per_second": "6.3556870486",
                "kilometers_per_hour": "22880.4733749726",
                "miles_per_hour": "14217.0363590212"
            },
            "miss_distance": {
                "astronomical": "0.1048150695",
                "lunar": "40.7730620355",
                "kilometers": "15680111.141101965",
                "miles": "9743169.266318517"
            },
            "orbiting_body": "Earth"
        },
        {
            "close_approach_date": "2047-06-06",
            "close_approach_date_full": "2047-Jun-06 04:41",
            "epoch_date_close_approach": 2443408860000,
            "relative_velocity": {
                "kilometers_per_second": "16.1460364519",
                "kilometers_per_hour": "58125.7312267748",
                "miles_per_hour": "36117.0689392146"
            },
            "miss_distance": {
                "astronomical": "0.4558953651",
                "lunar": "177.3432970239",
                "kilometers": "68200975.561832337",
                "miles": "42378121.1145347706"
            },
            "orbiting_body": "Earth"
        },
        {
            "close_approach_date": "2195-07-20",
            "close_approach_date_full": "2195-Jul-20 13:49",
            "epoch_date_close_approach": 7117681740000,
            "relative_velocity": {
                "kilometers_per_second": "6.2209158673",
                "kilometers_per_hour": "22395.2971221268",
                "miles_per_hour": "13915.5667034682"
            },
            "miss_distance": {
                "astronomical": "0.1101576429",
                "lunar": "42.8513230881",
                "kilometers": "16479348.742060623",
                "miles": "10239792.4828296774"
            },
            "orbiting_body": "Earth"
        }
    ],
    "orbital_data": {
        "orbit_id": "22",
        "orbit_determination_date": "2017-04-06 08:45:13",
        "first_observation_date": "2013-08-04",
        "last_observation_date": "2013-09-27",
        "data_arc_in_days": 54,
        "observations_used": 95,
        "orbit_uncertainty": "6",
        "minimum_orbit_intersection": ".107966",
        "jupiter_tisserand_invariant": "3.570",
        "epoch_osculation": "2459000.5",
        "eccentricity": ".4760773098396088",
        "semi_major_axis": "2.119182769958237",
        "inclination": "6.96722196319397",
        "ascending_node_longitude": "319.0616133013045",
        "orbital_period": "1126.810923007616",
        "perihelion_distance": "1.110287937778069",
        "perihelion_argument": "331.5583980757547",
        "aphelion_distance": "3.128077602138405",
        "perihelion_time": "2458740.698200918574",
        "mean_anomaly": "83.00296505794621",
        "mean_motion": ".3194857208511163",
        "equinox": "J2000",
        "orbit_class": {
            "orbit_class_type": "AMO",
            "orbit_class_description": "Near-Earth asteroid orbits similar to that of 1221 Amor",
            "orbit_class_range": "1.017 AU < q (perihelion) < 1.3 AU"
        }
    },
    "is_sentry_object": false
}